Inverse Dynamics Generalized Forces
version=1
nRows=121
nColumns=24
inDegrees=no
endheader
time	pelvis_tilt_moment	pelvis_list_moment	pelvis_rotation_moment	pelvis_tx_force	pelvis_ty_force	pelvis_tz_force	hip_flexion_r_moment	hip_adduction_r_moment	hip_rotation_r_moment	hip_flexion_l_moment	hip_adduction_l_moment	hip_rotation_l_moment	lumbar_extension_moment	lumbar_bending_moment	lumbar_rotation_moment	knee_angle_r_moment	knee_angle_l_moment	ankle_angle_r_moment	ankle_angle_l_moment	subtalar_angle_r_moment	subtalar_angle_l_moment	mtp_angle_r_moment	mtp_angle_l_moment
      0.50000000	     17.65087964	     17.66572567	     43.47709129	   -122.05679867	   -116.99102045	     18.82281249	     19.10514217	    -12.13016690	      3.96463733	    -29.71232960	    -59.51242626	     -5.17069868	     32.69186124	     12.83532755	     39.36235675	      2.69688604	    -52.84763255	      2.13649681	    -83.36459846	     -0.43453644	     18.33275391	      0.09917409	      0.04198626
      0.51700000	      4.82501799	     29.63267888	     20.91037662	    -73.95477839	    -80.97021048	     21.19270804	      8.80978591	     -2.94322078	      2.37133203	    -14.35194834	    -55.17537688	     -6.28309596	     19.99099509	     25.60546950	     22.19164910	     -1.94301011	    -51.03378381	      1.76133327	    -86.65900942	     -0.14576286	     18.58485039	      0.09896566	      0.04140004
      0.53300000	    -54.14584890	     23.33610333	    -59.51221421	     78.04079036	     76.03335402	    -22.53681047	    -38.03854992	     -9.43111372	      0.58563256	     26.69577073	    -58.96822009	     -7.01288218	    -12.91411818	     37.36143233	    -26.95010325	    -23.51819085	    -39.70339014	      0.37864017	    -89.44230431	     -0.50375654	     18.95260917	      0.06780617	      0.03605521
      0.55000000	     41.87747642	    -31.11448436	     11.24582915	   -119.73576237	      9.47868308	    -96.96962053	      0.77864260	     -6.15136168	      0.15415390	      9.85080391	    -60.29415212	     -6.80560979	     42.60534637	    -20.29480882	     17.62556562	    -12.77383180	    -48.05695251	      0.27457809	    -93.23729660	     -0.22683377	     19.19444516	      0.04720433	      0.03917553
      0.56700000	   -131.81117721	    120.10807315	      3.92240407	   -113.87137976	    -50.67580764	    221.85335497	    -25.50357320	     -1.39874587	     -1.71627937	     -2.42276715	    -61.54562554	     -7.69066508	    -69.59448982	    107.71205161	     17.92801260	    -17.94172562	    -56.95814113	     -0.42907479	    -99.26102560	     -0.26751148	     19.03473569	      0.01303878	      0.03630872
      0.58300000	     88.89208959	   -100.12134229	    -30.84589875	    208.44669729	    231.41309065	   -107.79654743	    -15.39115520	     -7.28815645	     -1.81451010	     31.66098536	    -55.55658201	     -7.07846536	     96.30932846	    -67.37023720	    -25.36447459	    -24.28545435	    -44.76606023	     -1.13844136	   -103.11720829	     -0.29480045	     18.77995646	     -0.00510983	      0.04330761
      0.60000000	    -69.59067169	     18.99892220	      0.50259092	    -10.99846016	    -46.07247670	    152.70422366	     -4.51612545	     -8.88120971	     -1.05223551	     27.41683153	    -53.21880663	     -5.99438577	    -61.28466307	     46.74489843	      6.23608940	    -11.90903784	    -46.37409040	      0.41106207	   -105.55673407	     -0.30353469	     18.57031197	     -0.00826972	      0.03276413
      0.61700000	     -9.34464117	     45.55126116	      6.59134996	     15.63754111	     72.52432529	     63.74769073	     -6.00473101	     -0.04029134	      0.00304107	      6.59564157	    -59.15087303	     -4.48701269	     17.40568810	     33.08930278	     10.41650545	    -14.88339626	    -48.28492356	      0.70488194	   -106.61583344	     -0.33362703	     17.99239078	     -0.00911723	      0.04697605
      0.63300000	     28.59750758	    -74.31243590	    -20.52550245	   -122.58785756	    -31.94201858	    -15.37900185	    -22.82235176	    -12.70810155	     -0.72424244	     40.38726961	    -43.67772828	     -3.42901832	     31.34711357	    -29.36507092	    -16.10051273	    -13.30715682	    -30.81823306	      2.62915767	   -105.34840299	     -1.00795557	     16.82311018	      0.03659502	      0.03643388
      0.65000000	    -53.40264225	     92.78755509	    -13.41278835	     25.17751525	     15.01062121	    -45.01033645	    -43.52355476	     16.03876351	     -2.22342820	     25.30840077	    -47.50345560	     -2.11061763	     -0.55855321	     63.77037985	     13.04866734	    -19.89130207	    -34.18219903	      4.35464195	   -104.73251981	      0.05739947	     16.67477993	      0.04816917	      0.04318828
      0.66700000	     62.53110345	     75.28071678	      3.82176897	   -281.00883996	   -115.52818996	    133.75680534	    -33.15928459	     17.89289402	     -3.77339173	     19.35668075	    -32.23091217	     -0.74126308	     78.01034120	     54.49260689	      7.58557838	    -14.80561898	    -34.62602022	      8.08695247	   -102.17680149	      1.91203526	     16.58178305	      0.07025847	      0.03442836
      0.68300000	    -95.02567043	   -101.40071700	     -8.49951962	    539.44599269	     24.79990351	   -313.92783266	     -6.26517187	     23.23690870	     -3.71351744	     50.28913564	    -25.31603474	     -0.31537528	   -109.01027235	    -96.39772313	    -11.44526574	      5.13136949	    -14.68397547	     11.07905141	    -89.66956254	      2.05658229	     13.98686367	      0.08900025	      0.03723171
      0.70000000	     60.53679432	    121.14113995	    -26.97068252	   -379.36551160	    -32.92155086	    119.93018829	    -71.37275718	     19.54702460	     -3.23885624	     27.89919018	    -15.98945249	     -0.62051983	    117.06694608	     81.59720244	     -8.81006481	      2.81707092	    -11.00169132	     11.13707633	    -73.47307936	      2.57056566	     10.70538393	      0.06714151	      0.03627735
      0.71700000	     43.20770196	    -33.20332454	     40.03329349	    130.11767077	    -96.67185604	     60.44704546	    -37.63030531	      4.18432945	     -1.73116530	     82.03685823	      5.51146101	     -1.47149004	     -4.73056845	    -45.18089698	     30.67558431	     13.00297147	      2.79182936	     11.79067667	    -53.70675984	      3.34356574	      7.42161279	      0.06498845	      0.03573786
      0.73300000	    -30.43159119	    -39.67332429	    -64.19207977	     47.36785770	     17.75037844	   -181.97531994	    -56.29562509	      5.39422539	     -0.90395799	     29.32163573	     -4.78042336	     -1.65835297	     13.67808930	    -49.80688171	    -56.16502577	     27.20310317	     10.62903858	     10.89071482	    -35.88115338	      5.22320300	      4.76074306	      0.06272166	      0.05369411
      0.75000000	     -7.51857750	     99.90958961	     42.95733895	    150.73843802	    -86.52984576	     20.86312870	    -36.45290511	     -5.66892690	      2.86487078	     49.39677470	    -12.94398180	     -1.10934586	    -13.78606340	     29.19548687	     55.79212307	     34.21448953	     10.02823995	      6.71701517	    -22.82639983	      7.87384663	      3.44570648	      0.06732890	      0.06074673
      0.76700000	     -5.46790401	    -46.95997223	    -32.84158535	   -256.61111006	    -20.11008631	     37.61430335	   -100.68277332	    -26.91253312	      5.02052735	     32.92931691	     -2.55642328	     -1.72862543	     64.05528660	    -57.61957163	    -23.52655858	     27.42424495	      7.17265826	      0.71870908	    -10.61641899	      9.69284584	      2.01254338	      0.05530826	      0.08029137
      0.78300000	      2.49867879	     74.25418640	     21.83034366	    186.92721526	   -129.32574195	    -81.12236981	     -7.61377681	    -20.54839113	      5.94560810	     10.90929808	    -22.00209410	      2.51854138	     -3.07208241	      3.88501235	     32.19445464	     47.79973474	      8.63232772	     -3.44394616	      0.39117674	     10.79013950	     -0.52326032	      0.05640268	      0.11995359
      0.80000000	     -5.66419277	    -79.56733813	    -55.59475274	   -261.34497412	    117.97531038	     -1.53681882	    -70.69178438	    -33.31508996	      6.61966326	    -17.08939437	      5.86388596	      0.57914833	     94.16537145	    -73.00133727	    -64.03199536	     36.25320057	     -0.39316509	     -8.88411650	      1.72470606	     11.96051117	     -0.63681558	      0.04019860	      0.11461688
      0.81700000	    -64.29683393	    116.25720202	     64.72313605	    153.42947284	     78.06603583	     75.03538259	    -48.46522745	    -21.22390257	      5.62454624	     30.44388641	     -5.16458614	     -0.16657310	    -21.14463383	     34.10384560	     74.39307355	     29.92929210	      2.18267919	    -14.19266088	      3.09036367	     13.03348495	     -0.35281768	      0.05235463	      0.15025207
      0.83300000	   -111.76892187	   -115.07939576	    -31.37996605	     37.60377253	    -28.43746902	   -168.64545769	    -35.97223122	    -28.54058203	      5.12573333	    -21.65014331	     18.51844687	     -1.04810281	    -38.35333267	    -96.11585094	    -47.27023216	     36.97717589	     -0.27290461	    -19.57456348	      1.64335289	     13.70007127	      0.02109269	      0.03319574	      0.08330242
      0.85000000	     88.89644068	     87.65986168	     25.81360485	    -19.92627465	      0.68080803	    110.81084102	     -9.30789339	    -31.68486290	      5.05310754	      7.59115721	      4.92224401	     -1.78902663	     88.88847535	     41.05259624	     30.25787869	     28.80370453	      0.98232435	    -24.71084888	      1.35549295	     13.93632693	      0.02217649	      0.03937523	      0.06483454
      0.86700000	   -117.63724454	    -58.75040460	    -32.89342952	    -49.58044319	    123.59676447	     -0.77696133	    -80.23595455	    -30.43923851	      4.39576403	     31.65151442	     18.84275301	     -4.28416262	    -34.90724393	    -46.07709598	    -34.64817355	     11.70365552	      7.30713910	    -28.94276731	      1.88455229	     13.91618474	      0.14271449	      0.04469120	      0.08118928
      0.88300000	     -4.99052961	     -8.12494752	     31.25122175	    206.19931577	   -125.40253187	    -35.81695601	     16.50384906	    -34.98837150	      3.08186257	    -14.61221092	      7.81642442	      0.28847239	    -10.49274669	    -18.87251598	     24.28638130	     23.26403824	     -1.83434222	    -33.24804784	     -0.08213171	     13.56088783	      0.12493127	      0.03241954	      0.00004526
      0.90000000	     38.29265620	    -39.49587065	    -40.08396832	   -265.72248460	     24.13275758	    -56.62274457	    -23.53182381	    -34.37812523	      2.20843451	     -6.51659966	      2.81850402	     -0.23712595	     75.16826980	    -38.30289138	    -43.26512149	      8.22718614	      0.50130699	    -38.98711974	      0.57216178	     13.96132654	      0.05654499	      0.03800015	      0.02589891
      0.91700000	   -102.63811913	    106.09556447	     54.15719014	    262.36722103	     80.14155505	    257.11460974	    -59.07358569	    -32.40000158	      0.30606206	     42.12149362	     13.91959556	     -2.41662331	    -53.48295628	     82.88135893	     67.52486425	     -8.42241846	     11.74656104	    -44.72420300	      1.70561849	     14.49532117	      0.03420242	      0.04246206	      0.06042038
      0.93300000	     81.59066447	    -84.17042557	    -47.70979341	   -311.96894687	   -188.12257874	   -224.20377643	     25.45903814	    -33.84940046	     -0.64797804	    -35.13925888	    -11.63495344	      3.45597816	     72.95078319	    -90.68005960	    -54.22017416	      5.01370272	     -7.50577996	    -49.25636887	     -0.11609221	     14.02611087	     -0.14272380	      0.03314523	      0.00603829
      0.95000000	    -96.23269817	     15.46417839	     -2.12481973	    146.26018601	     28.44501690	     14.84807338	    -23.67942278	    -36.56254266	     -1.46814181	      3.73807485	     -8.54009099	      0.61000489	    -51.07319438	      7.08572342	     -8.86160549	    -10.30114574	      0.59747430	    -55.02533284	      0.91916040	     14.21634540	     -0.19351125	      0.03619113	      0.03936827
      0.96700000	     49.27185288	     10.63024755	     -4.61106420	    200.33267392	     51.90876949	     39.27656788	    -45.34742586	    -31.87019308	     -3.33565309	     46.12066800	     -1.93918674	     -1.01050706	     51.67647549	     -7.26077747	      8.27515648	    -24.80210509	     13.39628712	    -62.04244000	      2.06605117	     14.74668834	     -0.19247753	      0.04309057	      0.07159695
      0.98300000	   -109.38380261	     36.95810593	     34.31699634	   -181.18414718	    -89.41918337	    -20.00509378	     20.39785712	    -32.25221286	     -3.11494096	    -44.54506299	    -20.67364896	      3.13355470	    -66.88144726	     -5.92370960	     12.20246025	    -11.99993130	    -14.03553796	    -69.35709163	      0.31345465	     15.79594102	     -0.39850106	      0.03651150	      0.03577741
      1.00000000	     76.66337139	     -6.72069924	    -19.01604738	     50.24116062	     33.66812961	    -44.46467511	    -15.28906206	    -27.97584819	     -4.29933154	      8.77819342	     -8.53137359	      0.39320256	     85.90786217	    -23.28450999	    -17.33141169	    -26.04949266	     -1.50853284	    -76.33048420	      1.13525290	     17.32928652	     -0.33223147	      0.03904148	      0.05444985
      1.01700000	    -44.41544275	     60.48613154	      5.60785577	    -63.04121795	    -41.67386986	    131.27337808	    -49.13396366	    -33.35971672	     -4.34000992	     34.94118965	    -12.88874746	     -0.68474729	    -14.38437879	     29.82301709	      8.23128436	    -35.69509262	     12.72140590	    -80.53501027	      2.21457119	     17.80769741	     -0.46103048	      0.04534178	      0.07100300
      1.03300000	    -49.40039384	    -42.46080183	    -10.22733933	    157.59022676	     47.38279744	   -201.91282774	     24.67960350	    -26.29156659	     -4.84234670	    -25.47044325	    -10.35636175	      0.88640438	    -30.43726094	    -63.50350852	    -22.13654936	    -22.23059869	    -17.23506925	    -84.20413863	      0.65768435	     18.08016352	     -0.47079276	      0.03539213	      0.06045808
      1.05000000	    124.85941261	     73.06599789	      8.96052607	   -277.79744274	    -41.23515513	    202.16134491	    -13.84895990	    -35.92119971	     -5.07259674	      9.13659717	      2.74336028	     -0.48329966	    126.13708241	     57.93671275	     17.37961530	    -33.34547844	     -2.84295567	    -87.97121928	      1.45496860	     18.29205728	     -0.44384049	      0.03736645	      0.07090064
      1.06700000	   -154.01448615	   -111.40322313	    -24.40115956	    265.75791657	    -27.26888199	   -291.97805145	    -32.84648977	    -29.66056131	     -5.08926547	     26.71113652	      0.60966612	     -1.56745667	   -116.55619767	   -118.39234479	    -29.26891327	    -43.46664720	      8.31365660	    -90.10128733	      2.28094580	     17.30440434	     -0.23544636	      0.04398440	      0.08980506
      1.08300000	     78.54642268	     87.03658491	     20.69269682	    -93.04090093	     72.27240629	    298.83785624	      6.71174535	    -40.48854815	     -7.56082427	     -8.21001676	     12.91963608	      1.36090317	     87.18263999	     77.11478586	     26.70583210	    -32.75581025	    -18.25594462	    -92.32635817	      1.11489231	     16.67646036	     -0.49884298	      0.03298645	      0.09316282
      1.10000000	    -85.64351591	    -20.05971724	    -20.84704075	    102.54517354	     27.94332167	    -35.12784686	      6.14677932	    -32.40845517	     -6.69442665	    -12.02116314	      8.65251518	      1.72328707	    -52.40267415	    -28.85500695	    -29.12847847	    -40.44986742	     -8.16452437	    -96.05445121	      1.54993177	     17.12105418	     -0.16204305	      0.04104793	      0.09561644
      1.11700000	     20.41658340	    -65.37888764	     -7.68978887	   -144.87864281	    -99.16157439	   -156.56427071	    -33.75127162	    -38.50143807	     -7.56210466	     30.37444140	      4.75913199	      2.30289180	     29.23064727	    -68.73445423	      9.63054772	    -50.25408287	      4.34863883	    -99.20043118	      2.05470474	     17.26797211	     -0.01738088	      0.04271916	      0.10418893
      1.13300000	     20.23992647	    119.12446604	     26.90059517	     -0.53809822	    105.29318954	    198.92770898	     37.81718886	    -38.14960490	     -8.18399914	    -48.55529737	     -1.88385280	      2.72684241	     45.27644063	     81.42391069	     17.90436521	    -35.33858294	    -24.32836742	   -103.17709975	      0.61848910	     17.42560015	     -0.29348829	      0.03495838	      0.08641851
      1.15000000	   -159.61891245	   -125.99893736	    -35.80851264	    206.58383500	    -57.34372588	   -188.07607338	    -20.23270771	    -40.37310490	     -9.84101299	     -0.94436868	     -3.35814014	      1.09704933	   -100.14226281	   -130.14837887	    -52.11885962	    -51.11492024	    -10.15425341	   -108.42376926	      0.74471697	     17.75502924	     -0.17937588	      0.03544253	      0.06650060
      1.16700000	    149.02448353	    135.90585536	     34.84554512	   -417.15693855	     -1.85120911	    129.79478144	     -5.12317241	    -43.35409965	    -10.03442094	    -12.05736596	     -1.37081209	      0.40084167	    154.83801600	     98.08182902	     61.27434879	    -55.94072084	    -12.09134741	   -112.85267755	      0.37626900	     17.94122992	     -0.02574785	      0.04190523	      0.05287973
      1.18300000	   -195.65229868	   -102.70828491	    -29.71851125	    306.26641987	     77.80854080	    -97.37841833	      9.64651941	    -38.69789790	    -10.05625518	    -46.11389475	     -0.82998642	     -1.79930411	   -101.73157800	   -108.74125401	    -68.72605292	    -48.37390086	    -27.77590783	   -118.62338239	     -0.75353684	     19.14591052	     -0.39130138	      0.03393320	      0.01755411
      1.20000000	     49.69715107	     88.55454937	     43.41866230	   -243.24117096	     46.88085498	     70.59473748	     19.92031497	    -39.04181467	     -9.79827437	    -12.05218680	     -4.85269588	     -0.92632002	     49.99783004	     42.70496002	     51.41838463	    -54.18128865	    -16.88018291	   -123.86029980	     -0.51807833	     19.66861652	     -0.25664812	      0.03999479	      0.01077453
      1.21700000	    -38.88527750	    -54.85973018	    -31.50281863	    -23.06038654	    -15.57752833	   -128.50753140	    -11.99290874	    -36.97881784	     -9.34019259	    -31.05207051	      0.67753004	     -0.57692325	     30.26127947	    -65.86004492	    -37.70087599	    -59.60250711	    -22.20288924	   -126.71391423	     -1.10796919	     20.05680276	     -0.05143698	      0.04261702	     -0.00662503
      1.23300000	    -23.61716757	    113.18471422	     -3.52209772	     96.77570268	    139.60219006	    -39.94018274	     27.35755255	    -25.33887850	     -9.06854581	    -10.40440919	    -13.08102052	     -1.10013750	     -8.75660716	     49.99093187	     18.21230363	    -45.09671272	    -12.63167881	   -128.40533402	      0.22745706	     20.55199006	     -0.37884865	      0.03714424	      0.00302285
      1.25000000	     53.60772285	      5.24418543	     25.85760235	     -5.27923747	    -14.17691075	    105.02016236	     27.25877298	    -37.33204235	     -7.37698162	     -5.69052015	     -1.07868109	     -0.23425624	     48.49451286	    -21.74372289	      7.05545845	    -43.26480548	    -10.37148761	   -127.78466851	      1.22873484	     21.10275904	      0.06049046	      0.04187338	      0.01885914
      1.26700000	   -172.17370943	    -75.58799984	     -7.02171496	   -195.61079311	   -113.23090516	    -61.55055908	      5.72368752	    -33.98463381	     -7.66646280	    -65.87241550	     14.36187763	     -1.31611190	    -73.80351474	    -62.45139828	    -18.96063354	    -45.07343403	    -24.94164271	   -125.58809880	      3.89391177	     21.25061845	      0.36162545	      0.03768997	      0.02549724
      1.28300000	     59.11540687	     21.14685394	     -6.37518485	     85.26000045	     64.54186096	    -22.07742265	      9.07531507	    -18.07056415	     -5.17611862	     -0.08999453	      5.61070556	     -1.73093762	     68.34992564	     -5.96932987	      8.78155978	    -31.49102405	     -4.47087272	   -122.12787664	     10.17355172	     22.82429474	      1.09141694	      0.03536130	      0.06718314
      1.30000000	     14.15198478	     32.47437395	    -20.55838189	     48.35596673	    -95.26571747	     71.54331390	     48.20221128	    -11.04610624	     -2.80390535	    -22.97492136	     17.41456357	     -0.47973782	     -7.49193781	     30.05451286	    -12.36365938	    -20.66222317	      3.14593311	   -108.67310842	     14.93832831	     21.57230871	      2.12358085	      0.03828699	      0.06464458
      1.31700000	     20.68131010	    -36.57785157	      8.47975693	     24.09089406	    -16.29509100	    -50.31301673	     32.18825048	     -9.60975151	     -4.68045179	    -36.15805030	     13.37357217	      1.30074340	     40.09107865	    -26.18778989	     13.05900503	    -14.56501153	      4.57842622	    -88.47536453	     18.01418441	     16.96025209	      2.36061066	      0.03209183	      0.06714654
      1.33300000	     47.00478905	     62.64165773	     -7.03346738	      7.59837141	    -43.66613908	    116.61634796	     50.35037670	     -0.14889736	     -4.54824878	    -27.19327213	      6.59318165	      4.31719665	     21.06035860	     62.89061093	      5.73357656	      3.94000639	     21.33509740	    -70.51665638	     20.06578935	     14.68626323	      3.85561432	      0.03993118	      0.07700864
      1.35000000	     -1.21324322	    -13.18040091	    -11.00085792	     33.07466440	    -77.29542833	    -60.27960056	     39.34615507	      0.80778804	     -3.52687367	    -43.16926341	     -5.86947215	      7.78517837	     11.81807040	     -0.50851064	     -4.75810916	      4.32028673	     25.90587056	    -51.48950187	     20.57363951	     11.47628744	      5.36436230	      0.03876107	      0.06176212
      1.36700000	    -44.79307786	     25.75694255	     14.98312763	    150.83437415	    -17.66618125	    -18.37384721	     61.34950256	     -9.84065589	     -4.09099127	    -65.80119301	    -24.65122159	     12.31329186	    -28.19943858	     32.15319688	     14.89325654	      8.60312096	     27.20119677	    -31.11083205	     20.17869975	      6.53845158	      6.11174637	      0.04954677	      0.06331614
      1.38300000	     79.91653915	    -20.55151704	    -22.16405305	   -223.04783769	    -87.63069010	     95.10422120	      3.60636548	    -13.36113314	      0.68702918	    -18.72880090	    -27.43229319	     15.57896899	     89.04879280	     22.61895102	    -25.37434297	      7.78244818	     47.41234889	    -16.40964021	     15.96228959	      3.22025651	      7.81779008	      0.09556606	      0.06117237
      1.40000000	   -139.10400748	     55.57350398	      8.09781582	    216.26801635	     94.07295955	      9.22091248	      7.14166539	     -3.40906191	     -0.07339083	    -49.06026094	    -42.06491653	     17.38324411	    -70.18678903	     52.04475041	     23.52696983	      2.13590640	     42.63522135	     -4.77869284	     10.68499020	     -0.02392770	      9.21167904	      0.11482762	      0.05130496
      1.41700000	     47.33550764	    -12.44361363	     -9.52831368	   -234.23594223	    -53.78563116	    -72.92761194	     29.98570470	     -0.83102423	     -0.40759624	    -56.83587063	    -43.59098721	     18.27494918	     72.93901101	      7.00734641	    -13.19767199	      4.26340417	     37.70879424	      2.54461393	      6.72143828	     -1.19834694	     10.11830916	      0.15015412	      0.05593957
      1.43300000	     33.62153397	     89.05879550	    -11.96643533	   -130.88756853	      5.11901717	     66.27543945	    -27.32862642	     15.58277337	     -0.73712642	     -4.33098968	    -43.04757899	     17.55140905	     62.29609403	     80.17907659	     16.31568900	     -3.56873561	     48.95404451	      2.46086750	      1.31610843	     -0.20304866	     10.84148520	      0.13156894	      0.04151880
      1.45000000	   -133.82677186	    -46.40019175	    -29.76859093	    380.16968910	    195.83307010	    -18.71288537	      0.01654607	      5.70599595	     -1.83114528	    -21.10364044	    -43.25801894	     17.31492747	    -63.52130302	    -19.49921876	    -23.49061807	     -3.40652540	     38.13081108	      1.88256742	     -3.77633338	     -0.04604705	     10.68005435	      0.10045899	      0.04022520
      1.46700000	     92.69418474	     80.69580527	     20.39751721	   -401.21701115	    -23.70172660	     18.97042833	     37.36343808	     14.44914331	     -3.81839111	    -62.70924885	    -50.88163528	     16.63573058	    104.34397680	     54.11412065	     19.32989507	      6.19424264	     22.57157786	      2.41900910	     -9.83656351	     -0.07482879	     11.01717116	      0.11112273	      0.04779821
      1.48300000	    -96.79271520	    -11.44878051	    -34.63300957	    268.43538646	    -98.07213122	    -63.86968408	    -24.19593302	     10.63594141	     -1.62891371	     22.87525491	    -50.77147111	     14.23384110	    -74.54191356	    -17.60563703	     -8.80356659	     -0.72662042	     33.59445147	      0.06531283	    -15.58209823	      0.26071128	     11.09756151	      0.00637870	      0.03421731
      1.50000000	     36.38107421	     76.78178157	     20.06059561	   -175.91921077	     10.53382030	    144.36865378	      6.44421590	     -1.84972340	     -1.11584409	    -27.61136366	    -47.93991221	     12.27052196	     58.09544330	     66.14558070	     22.35975075	      1.46781863	     16.88337032	      0.67491382	    -19.49448169	      0.06216320	     10.59201267	      0.02930997	      0.03781434
      1.51700000	    -42.68288510	    -23.08891828	    -33.37300704	    165.62016817	     97.99030364	   -209.51455294	     39.73941585	     17.64870424	     -4.52922442	    -40.26943915	    -46.82783753	      9.98123571	    -17.04695185	    -31.77493976	    -28.56911489	     10.37697221	      5.15990398	      1.44828153	    -22.59231298	      0.21993177	      9.75414621	      0.05334519	      0.04374394
      1.53300000	     -0.26392333	     46.91729614	     14.34181017	   -198.85644888	   -216.18441821	     76.59038482	    -32.10769812	     -5.75243907	      1.27215022	     23.18373520	    -46.76063059	      8.37627034	      2.86258873	     26.74859256	     35.89927548	     -4.30743907	     16.55108329	     -0.34443123	    -26.23569466	      0.00466044	      9.61934199	     -0.00941191	      0.03405086
      1.55000000	    -12.79417750	      4.67999943	     -4.92516284	    237.96390159	    210.10398066	     59.80964774	     10.06970625	     -2.22062767	     -0.48355293	     -9.47609578	    -36.55128983	      6.87441067	     13.46262679	     25.18640653	     -5.38203249	     -0.08843496	      3.58442232	      0.64613130	    -29.74479674	      0.03483322	      9.37981260	      0.03015462	      0.03724778
      1.56700000	      5.17469566	     -0.46732220	     -7.51136712	   -174.61717248	   -105.65961022	    -71.55087260	     33.62052264	     -3.18067376	     -1.44555747	    -26.73153736	    -48.43065060	      5.82280802	      1.41921138	     -9.73317708	     -1.77342889	     13.73116812	     -6.67883618	      1.87604468	    -33.92224036	     -0.10675923	      9.32783811	      0.06045249	      0.04483596
      1.58300000	    -41.12896758	     39.25175360	     -8.39215737	    299.07961175	    107.06526468	     77.17854728	    -21.59532303	     -7.76411297	      2.75843528	     17.93312226	    -41.14504224	      4.09203206	    -12.99657388	     46.68134273	     11.26655532	    -10.53476486	      1.34373062	      0.19669413	    -39.27183577	     -0.26709691	      9.71315564	      0.02680159	      0.03143977
      1.60000000	    -50.89853244	    -11.08488348	      4.96934915	   -335.32013779	    -71.46378141	    -45.90212731	    -10.13902246	    -10.37206659	      0.95680435	    -13.37495684	    -49.93963663	      3.75054144	    -15.27811779	    -17.60797306	     12.18120535	     -1.80773360	     -8.87773166	      1.09714025	    -42.53361265	     -0.31654015	      9.59552389	      0.05078123	      0.04075330
      1.61700000	    104.62877116	     11.58695682	    -13.98862637	     98.46482120	     -4.33361792	     70.56735026	     40.29385437	    -13.71278771	     -0.49523527	    -14.07491359	    -39.62507812	      1.86468302	     82.74866914	     36.94868730	     -8.54472671	     14.53019126	    -18.61573598	      2.28040854	    -46.09776930	     -0.28955684	      9.47352891	      0.07590855	      0.03895527
      1.63300000	    -70.27098119	     16.19285345	    -28.41527637	    -72.03331326	    -27.98394742	    -89.73114192	    -34.01657187	     -4.73506728	      1.90419712	     15.19672978	    -52.47937003	      1.67018002	    -37.62200610	      3.76647946	     -3.62230743	    -15.49994912	     -7.70512221	      0.67081050	    -49.26599041	     -0.55541754	      9.69613996	      0.05679591	      0.03821499
      1.65000000	    -45.77329911	     -6.26723048	     15.72640228	    225.69912666	    124.33282762	    170.92920451	      5.75368330	    -16.97429140	      0.07971220	     -1.06561995	    -37.93356993	      0.24490167	    -20.78239097	     23.27120246	     14.96799616	     -2.88242246	    -18.16427312	      1.37936537	    -52.87505215	     -0.39570306	      9.26149591	      0.06534047	      0.03581451
      1.66700000	     60.68056028	     33.31149898	    -24.05568223	   -174.76109996	   -219.60384497	   -181.09795012	     37.38567821	      9.39889911	     -2.20624424	    -14.20471377	    -60.00821553	     -0.01396007	     27.24098468	      1.40065282	     -9.56149599	     13.48981834	    -28.26435008	      2.46182549	    -57.81552248	     -0.31621698	      9.92217056	      0.08862689	      0.04521137
      1.68300000	    -38.84989805	      4.54317386	     -2.01793072	    139.75339391	    146.32754108	    105.33249748	    -29.21900548	     -0.22943622	      1.54570530	     15.85376134	    -39.32264943	     -1.47447320	      8.74121635	     21.01608637	      1.89354700	    -20.23094960	    -19.59122065	      1.09285248	    -62.92027979	     -0.51858502	     10.49022397	      0.09020994	      0.03220251
      1.70000000	    -10.52973181	      2.85641194	     -0.31206187	    -76.43484005	     48.22551669	    -71.59906742	      5.70209616	      7.17358553	      1.52629167	      7.69604695	    -48.02742937	     -2.35573916	    -11.91419207	     -7.10810363	      5.23973333	     -4.81271508	    -27.50868920	      1.80549269	    -66.78957730	     -0.38362581	     10.23692659	      0.09590262	      0.04591587
      1.71700000	    -23.82326123	     61.98648895	     12.50629476	    -62.68296373	   -133.51471857	     17.62930726	     16.98485124	     10.94366282	      1.44421010	    -33.37014392	    -50.86639317	     -3.50697090	      7.73969483	     46.12301588	     14.26870322	      4.68169696	    -40.49774132	      2.38677066	    -72.33792417	     -0.08681812	     10.44001817	      0.11316639	      0.04257003
      1.73300000	     28.74976317	    -27.47510075	    -45.75143369	     22.36860010	    119.48558961	    -32.25579656	    -28.53340564	     -8.18650355	      3.60325183	     37.15195736	    -57.58520462	     -3.57815456	     40.24321100	     -7.44651219	    -34.20395090	    -22.06340327	    -26.80394947	      1.10255874	    -76.68042738	     -0.52784323	     11.23679980	      0.10149057	      0.03570406
      1.75000000	    -41.10657729	     29.98831927	     15.10894632	     18.09204456	    -18.55156286	     66.41155405	     -6.63767621	     -6.31842033	      1.74957474	      8.51195984	    -62.45779244	     -4.10973915	    -22.68564852	     25.97885966	     26.00131224	    -10.19039187	    -37.29354098	      1.21383011	    -81.28900799	     -0.20260622	     12.76954664	      0.08686355	      0.03549145
      1.76700000	      9.43465265	     17.05807735	    -18.97341702	    -84.26281889	    -65.69016428	     -4.59432606	      4.03273069	     -3.71335087	      1.26861956	    -22.24998539	    -65.94582763	     -4.34038732	     39.58261921	     20.64342074	    -15.59115967	     -7.15155662	    -50.05522414	      1.05756538	    -87.08743291	     -0.11156694	     14.77019767	      0.07674377	      0.04380377
      1.78300000	    -21.75006400	      4.12402670	    -19.78730137	    -73.06084737	     99.66927409	    -13.84380724	    -41.26123583	     -6.06577930	     -1.26051996	     43.63217191	    -65.75035000	     -4.91341928	      6.31374582	     10.69658316	      6.71678936	    -27.29365598	    -36.79988480	     -0.32076248	    -92.70580790	     -0.39682100	     16.50203359	      0.04057060	      0.03163973
      1.80000000	    -40.88874160	      0.36079954	      0.21884570	     70.19684429	     58.23763554	    -41.46838444	     -5.54374705	     -0.55536396	     -1.21222516	     22.79694916	    -67.54118464	     -5.18511135	    -30.34865980	     -4.48466677	     11.70142101	    -17.11164573	    -45.55148624	     -0.50881096	    -97.53551144	     -0.24399404	     17.48902583	      0.01344012	      0.04085048
      1.81700000	    -29.20023259	     82.94245882	    -24.14446145	   -182.48629162	     -7.67723436	    140.53491219	    -31.04544505	      1.84673002	     -1.49519179	     -4.72662824	    -64.06061835	     -4.81269240	     34.05435269	     88.57261035	     -7.97897434	    -22.44866363	    -53.41790559	     -0.98437068	   -102.83456371	     -0.10658102	     18.16061751	     -0.00343419	      0.04028128
      1.83300000	     14.25585060	   -104.90170276	      5.80006540	    198.60331128	    133.41752018	   -121.11376469	      1.71650963	     -7.23152880	     -1.19117938	     54.49899891	    -58.46774295	     -4.32059316	    -10.52039976	    -81.48492816	      9.74470559	    -16.07459372	    -35.90307015	     -0.59871430	   -106.61569731	     -0.48643562	     19.27673290	     -0.00602000	      0.03679102
      1.85000000	      9.65960991	     99.23728220	    -30.53987503	   -189.16993211	    -62.71187320	    162.85036510	    -15.19970542	     -1.45249079	     -0.87456842	     33.61847868	    -56.77898460	     -2.08436364	     12.96968297	    107.88714373	     -7.78212332	    -11.59851560	    -38.72527003	      0.51037135	   -108.25293762	     -0.35624934	     20.27603514	      0.01406582	      0.03510032
      1.86700000	    -55.13972027	    -25.43539097	     -2.60829042	    137.73185742	     42.20351828	    -93.49052825	    -26.66145028	      0.79691656	     -1.33398105	      7.36109240	    -56.54562148	     -0.19123674	      0.72110542	    -24.53286562	      4.03781179	    -22.36345267	    -40.84047351	      0.57279484	   -106.83137647	     -0.99764477	     20.03533932	      0.01233434	      0.04143543
      1.88300000	     35.74834446	     29.50750613	      6.38423583	   -139.72316182	    -59.24701491	     92.32984266	    -40.82919317	     -0.86667274	     -2.86900734	     54.39484738	    -41.24819737	      0.59522133	     39.86299246	     29.70411324	     23.36499909	    -15.62605519	    -22.58353092	      4.93341583	   -104.17999227	     -1.06670651	     19.34161154	      0.06121443	      0.03660125
      1.90000000	    -27.79469890	     33.90273554	    -24.14426620	     23.69842643	     -1.90288976	    -25.82603180	     -9.75653216	     20.16508453	     -4.37702221	     31.02274081	    -37.18628335	      1.05833644	    -27.20734946	     22.04445963	    -20.55382234	     -5.90275748	    -22.35983410	      9.09458207	    -96.29659486	      0.72438393	     17.45167861	      0.06870441	      0.03918829
      1.91700000	     47.89191201	     29.41198168	     21.45907529	    116.24247378	     28.78515574	    -37.47552448	    -34.01384729	     19.18595234	     -3.69181965	     45.21005121	    -22.59914633	      0.16360258	     52.24168390	     -1.89360959	     29.74952168	     -4.42155118	    -16.95494052	     10.77505457	    -82.71992014	      1.28672071	     13.91318243	      0.06776718	      0.03829451
      1.93300000	    -27.36982348	    -23.07118828	    -21.22274319	     34.15470127	    -56.70419595	    -33.74361540	    -29.67668493	     15.03224568	     -3.11833281	     56.15675710	     -5.09673500	      0.25097311	    -41.87979120	    -15.92138410	    -26.06878939	     12.22638129	      0.35276229	     12.15551808	    -66.66661366	      1.84984783	     10.69473434	      0.08329252	      0.03904056
      1.95000000	     40.93515373	     61.18999649	     17.88885025	   -177.92842508	    -83.09699152	     21.47227001	    -54.93830452	     12.97248834	     -1.53108551	     48.65907557	     -3.66714491	      0.50258827	     52.50466586	      9.55521875	     24.96282077	     15.50510490	      3.80349923	     11.86040974	    -49.18457987	      3.28209615	      8.01949694	      0.05591584	      0.04188909
      1.96700000	    -65.90012894	    -58.38431294	    -27.34642124	    314.31270731	    -28.62494291	    -26.43113949	    -65.48117091	     -9.35050669	      1.41863616	     66.85719287	      4.57273899	     -0.77114865	    -57.47577164	    -45.45449231	    -20.90506241	     19.05730211	      7.18561124	     10.44518657	    -33.55132815	      5.76451819	      5.52185965	      0.06932285	      0.03400495
      1.98300000	    107.01971236	     40.93419597	     -1.72539793	   -232.66543370	    -83.87096526	   -105.06377936	    -36.91089850	      0.14350346	      2.61162531	     23.04248750	    -11.63209814	     -0.11379679	    110.70449466	    -26.70025127	      6.96670301	     40.50628202	     10.99226525	      6.37892365	    -19.52534190	      8.45620491	      3.04061511	      0.06728453	      0.06996467
      2.00000000	   -119.43221894	     54.59556746	     -1.92850269	     30.32324338	   -114.69919525	    109.47047014	    -73.66938181	    -28.34074171	      6.20176206	     24.70829302	     -8.79921311	      0.50467176	    -53.02817392	     26.71007191	     14.11173864	     39.81689766	      7.51203843	     -0.15569930	     -6.24548905	      9.74219269	     -0.17710532	      0.05949100	      0.08013215
      2.01700000	     74.00485571	    -41.00221608	     -9.56541169	     66.48113847	    165.96884109	    -55.16164618	    -58.94495541	    -23.21296885	      6.24386243	     40.49660808	    -12.64710059	      0.69846841	     97.05729348	    -87.55231664	    -11.13876351	     38.87873272	      7.90774722	     -6.27647641	      1.94068753	     10.64056798	     -1.38489815	      0.06047607	      0.12191117
      2.03300000	   -153.87077796	     64.92807720	      4.88021188	    -99.01823344	    -61.91273451	    -36.77937777	    -46.02288010	    -19.61397119	      6.01141821	    -26.51545518	     -2.29642962	      1.17543219	    -55.66641142	     15.97280561	     11.00057706	     49.82097515	      1.47821854	    -11.64477787	      2.81827251	     11.45163274	     -0.29637788	      0.04332485	      0.14400342
      2.05000000	     73.24059760	    -75.30852183	     -3.63078601	     68.62531266	     15.30737528	    -75.95584998	    -19.12651164	    -26.91716496	      6.98209169	     13.50312097	      8.16904297	     -0.13604697	     68.49590671	    -95.25212540	    -17.69790216	     43.33487563	     -0.32660581	    -17.78824952	      2.76310054	     12.70098103	     -0.40732927	      0.04647607	      0.13729289
      2.06700000	   -140.09099788	    112.05120337	      7.89558223	      0.51901224	    137.09304943	     44.90050249	    -82.98553933	    -24.44559041	      7.27634897	     28.54402967	      1.70066885	     -1.64075736	    -40.08918057	     56.07973358	     25.96821295	     27.70439004	      4.86009805	    -23.63593141	      3.38224326	     13.41595314	     -0.32997023	      0.04172306	      0.15695222
      2.08300000	      4.83495620	    -96.99423295	     -3.85340825	    139.70313201	    -56.91565491	    -51.89114648	      4.46076472	    -38.09766165	      7.12436359	    -17.84101222	     20.30590298	     -1.27114564	     17.36360228	    -76.83223386	    -27.73077328	     38.59230143	      0.73785431	    -28.08001545	      0.96470890	     13.21336942	      0.03955406	      0.03361840	      0.04594873
      2.10000000	     54.96767010	     61.77518615	      7.35043329	   -287.73509239	     25.50933234	     92.08484919	    -46.78416664	    -36.99708332	      5.64915526	      7.71493139	     -1.92226855	     -1.29650976	     98.15394261	     26.86380933	     19.97371863	     22.17308852	      2.61442090	    -31.63479842	      0.89129480	     12.40058511	      0.02456312	      0.03538682	      0.03585017
      2.11700000	   -130.05964062	    -70.81170267	    -12.90606877	    238.72432779	     10.37459299	     -1.35324902	    -38.84481347	    -37.35459221	      4.21252684	     32.97917277	     22.37424019	     -2.56415253	    -97.24949665	    -42.52806222	    -20.43384585	      9.63060572	     10.49354303	    -34.45424807	      1.54641870	     12.74242263	      0.10125692	      0.04689030	      0.05763758
      2.13300000	     89.01953830	     21.69540602	     -5.43162496	   -128.41055948	    -63.23882465	    -40.03386648	     12.67196212	    -29.57224010	      2.29473366	    -31.01159516	     -0.81295158	     -0.08319415	    100.15506333	      2.05840501	     -8.25944306	     18.20008087	     -5.05328964	    -37.32546238	     -0.61173093	     13.35662682	      0.21408150	      0.03269084	     -0.01779061
      2.15000000	    -98.63809803	     24.86250301	     14.46706382	    -35.41292080	    -53.80215525	     66.18239223	    -22.46590939	    -35.51340108	      0.65498120	     -2.72552936	      0.35275614	     -0.47510300	    -53.51451656	     12.46440123	     11.99125575	      2.95550841	      0.01174577	    -41.31819858	      0.58327089	     13.42085006	     -0.01277606	      0.03677736	      0.02720011
      2.16700000	     20.28404720	    -20.23707728	    -24.64249801	    151.57602444	    113.19013012	    -66.94851859	    -27.95822827	    -29.56645835	     -0.68817169	     38.63953434	      3.43776707	     -2.07255352	     20.31164473	    -27.38638664	    -20.07386054	     -9.38963727	     12.17882624	    -45.43112104	      1.86430979	     13.55550856	      0.00759219	      0.04375785	      0.06660678
      2.18300000	    -46.82612063	     14.53892535	     10.73711179	   -140.42085849	   -196.13036474	     57.53191259	     11.66482702	    -38.92350830	     -1.41610087	    -34.93269170	     -5.60809065	      1.86723318	    -17.95727705	     10.25574600	      0.67018337	      1.42276452	     -9.99623523	    -49.37213177	      0.01214427	     14.06098647	     -0.21362920	      0.03303087	      0.01928963
      2.20000000	     25.88328807	      1.69598229	     -5.23513578	    150.70117719	    149.04186323	    -93.07100268	    -11.26969481	    -29.03766183	     -2.23632068	      7.00546397	    -13.68988030	      1.89253065	     43.09355982	    -29.57378100	     -4.97566461	    -11.79782141	     -0.78705018	    -53.64692740	      0.98382368	     15.30538255	     -0.27790970	      0.03937684	      0.04441233
      2.21700000	    -72.87906370	     -0.68857967	     -0.04082017	   -131.24553876	    -95.24120369	     13.39585688	    -40.21581912	    -35.30297962	     -3.01757823	     25.68426748	     -8.94932396	      0.81741916	    -41.60126188	    -14.69488446	     -1.10781239	    -20.69940196	     13.94018155	    -56.87170056	      2.15564474	     15.71230345	     -0.35212383	      0.04398287	      0.06913265
      2.23300000	     22.71291880	     45.23311601	     10.42838688	     91.08537073	     -5.08803308	     83.41076957	     23.46886864	    -35.74436033	     -3.41148009	    -29.90718825	     -9.73749431	      1.98639153	     35.46306056	     29.19100001	     -0.39776337	     -9.00277272	    -15.07928395	    -59.98345977	      0.33012052	     15.58967796	     -0.44507003	      0.03551379	      0.04261976
      2.25000000	    -41.79178115	      7.83142576	     -0.94345332	     39.33750588	     33.04327026	   -150.47320529	     -3.40347472	    -25.67008252	     -4.57987326	      5.95006739	    -15.41931268	      0.73732749	    -27.71434990	    -34.30070479	      0.98524605	    -19.72886813	     -2.49037015	    -64.81920399	      1.44526669	     15.68178251	     -0.40427942	      0.03764100	      0.06806983
      2.26700000	     52.24390336	    -18.57054399	    -33.74187151	   -161.97724435	   -123.01668194	     47.82888240	    -30.56959124	    -41.26004535	     -5.01971245	     26.33809237	      1.73446383	     -1.78226716	     57.10315897	     -3.95631228	    -29.80868556	    -30.29356119	     11.58087838	    -69.57620777	      2.26098490	     15.64724014	     -0.36938320	      0.04430554	      0.08076018
      2.28300000	   -102.23248125	     21.34228227	     40.92475459	    302.08767653	     64.47475841	     74.56789056	     32.85103228	    -34.18441259	     -6.59226531	    -21.30375801	      3.91157540	      0.34119485	    -87.23543516	     -3.78130078	     23.60517665	    -17.38636593	    -19.63348662	    -74.44803683	      1.02844183	     15.77875604	     -0.49168687	      0.03117549	      0.08714557
      2.30000000	     64.86994891	     25.66608143	    -31.20678855	   -136.00243885	     60.13558033	   -152.38570700	    -26.88541257	    -31.39630575	     -6.09821759	     11.93043415	      0.25483340	     -0.49660435	     91.94496155	      4.59523700	      4.88892210	    -30.64930400	     -4.81441514	    -80.24348201	      1.59242146	     16.55583315	     -0.30465048	      0.03745151	      0.08832618
      2.31700000	      8.67277402	    -30.19742138	      6.67625833	    -23.96868256	   -169.50626113	    221.81925937	      3.44088474	    -49.56758280	     -7.53655115	     22.47734207	     19.28832774	     -0.39524642	    -15.38225176	     -9.70994250	    -16.13904817	    -37.56295638	      6.28589823	    -85.42403760	      2.47849946	     16.49841589	     -0.20613149	      0.04352709	      0.11097410
      2.33300000	    -86.77196811	     27.50150620	     -4.16705364	     45.10879138	    162.91242945	    -12.12706393	      8.12728465	    -36.61906641	     -8.37598369	    -32.75453463	      3.83230081	      2.49791625	    -27.20141358	      5.67589516	      1.93886344	    -28.98700871	    -23.32120028	    -90.22085997	      1.04434738	     16.63845012	     -0.39071866	      0.03278630	      0.10391036
      2.35000000	    -58.32955190	    -87.50136279	    -17.02351387	     54.11339953	    -25.30147136	   -176.81019840	      2.73433888	    -46.19944364	     -8.56376502	      1.84303618	     -2.02969837	      1.98685244	    -39.50278105	    -87.58416208	    -21.08433043	    -39.89679729	     -8.64064386	    -96.16425390	      1.33367126	     16.88951606	     -0.25397143	      0.04002174	      0.09131258
      2.36700000	     74.99757372	     97.63618079	    -15.96327869	   -158.73954845	    -57.48566727	    103.57523955	     -8.80297420	    -42.72459063	    -10.86728502	     -7.39380732	     -4.50716255	      2.18538719	     89.54571276	     63.45956010	     -2.96709139	    -50.83856176	     -7.29342926	   -102.42609203	      1.24272579	     17.27460072	     -0.10282000	      0.04013346	      0.08510449
      2.38300000	    -98.72771101	     -8.21069284	     57.76499745	    -57.79343152	     69.10544378	    -16.03523178	     10.93737667	    -52.13310698	    -10.00730289	    -42.03620601	    -11.91815173	      1.06255442	    -31.42860699	    -35.87425454	     37.17694350	    -42.65218505	    -27.51933490	   -108.67394033	     -0.30403349	     18.68929888	     -0.44313199	      0.03712428	      0.04610700
      2.40000000	    -10.51001829	     96.84004114	    -11.39027091	    192.49644896	     34.34912836	     33.11717545	     36.99359546	    -37.31632042	    -11.59250076	    -28.02831413	    -20.26482109	      0.76256386	     -5.08712399	     35.60387956	    -12.71218137	    -49.98650532	    -19.72186752	   -114.34086635	     -0.26382124	     19.11032481	     -0.33651828	      0.04102855	      0.02767461
      2.41700000	    -47.13442014	    -98.34689332	     13.68354536	   -547.71301754	   -219.82952034	    -44.36010021	    -32.30406069	    -62.06218298	    -11.70904727	    -35.25379061	     -2.62058866	      1.42985670	     39.51393255	    -84.24262334	     -9.47912173	    -61.40728722	    -21.98286827	   -118.63759000	     -1.00650965	     18.43755548	     -0.04899911	      0.04028032	      0.00488103
      2.43300000	   -102.36923359	     61.10059120	     -5.74424715	    485.75401734	    300.61318307	    -27.32752673	     56.18167318	    -31.46637975	    -11.63161485	    -14.88732340	      7.64619445	     -2.13106269	    -91.98638196	     17.87160699	      2.76193134	    -44.94271165	    -21.04757817	   -123.03832178	     -1.10615415	     19.38194350	      0.01922041	      0.03782058	     -0.00779972
      2.45000000	    115.02055682	     45.88721480	      3.11740011	   -385.19027922	     57.57470079	     31.41408041	     23.04744553	    -35.11090895	    -10.13386645	     -2.74644101	     21.79881235	     -2.62168745	    109.98952429	     21.48870646	     20.87840233	    -50.02524535	     -9.70324642	   -126.59203026	      0.39223348	     20.44406063	     -0.01555114	      0.03269708	      0.00441734
      2.46700000	   -227.73474231	    -58.12665198	    -30.83993157	    452.74625420	    167.16091647	    -38.13053686	     -0.07522065	    -45.97368877	     -9.11411971	    -17.93235409	     25.69849632	     -2.32621129	   -143.70434991	    -35.10641787	    -34.85101492	    -51.50650667	    -20.69170100	   -127.13984736	      0.31003472	     20.32596802	     -0.36025072	      0.04825905	      0.00377810
      2.48300000	     98.94000770	     12.39883463	     11.90002918	   -297.52265939	    -80.32449958	    -31.61814788	     35.85809296	    -31.08632490	     -7.80533915	    -33.67280913	      0.08661181	     -1.52601387	    102.01482166	    -14.66517085	     14.71998535	    -37.00324899	    -18.35966008	   -127.36607193	      3.85864166	     21.46386136	     -0.42302337	      0.03166975	      0.05958472
      2.50000000	    214.40742931	     17.82414565	     23.37099402	   -570.59325232	   -186.24079896	    -21.00560092	     44.06979672	    -19.14307877	     -5.18557255	    -33.07566386	      7.02026487	     -1.34878699	    185.75141179	     -9.73401633	     31.17787414	    -26.99407081	     -9.52576412	   -122.63558436	      8.87490223	     22.63259440	      1.25986462	      0.02894767	      0.07416409
